[
    {
        "Altitude(m)": 605470.7717465588,
        "Argument of Periapsis(deg)": 0.0,
        "Eccentricity": 0.0,
        "Inclination(deg)": 60.0,
        "Latitude(deg)": 27.98814688537633,
        "Longitude(deg)": 177.2629960958053,
        "Mean Anomaly(deg)": 147.27270000000001,
        "RAAN(deg)": 114.99999999999999,
        "Satellite Name": "Test1 515",
        "Satellite Number": 515,
        "Semi-Major Axis(m)": 6980739.136638005,
        "Time(s)": 0
    },
    {
        "Altitude(m)": 605395.8096801715,
        "Argument of Periapsis(deg)": 0.00010418945913296404,
        "Eccentricity": 0.0,
        "Inclination(deg)": 60.0,
        "Latitude(deg)": 27.473837003240835,
        "Longitude(deg)": 177.61618262761226,
        "Mean Anomaly(deg)": 147.8928061454618,
        "RAAN(deg)": 114.99957995086024,
        "Satellite Name": "Test1 515",
        "Satellite Number": 515,
        "Semi-Major Axis(m)": 6980739.136638005,
        "Time(s)": 10
    }
]